[{"OBJECT_NAME":"ORBITER SN3","OBJECT_ID":"2023-084AE","EPOCH":"2026-03-09T23:12:21.976128","MEAN_MOTION":15.32943891,"ECCENTRICITY":0.00075889,"INCLINATION":97.61,"RA_OF_ASC_NODE":206.6768,"ARG_OF_PERICENTER":331.7947,"MEAN_ANOMALY":28.2883,"EPHEMERIS_TYPE":0,"CLASSIFICATION_TYPE":"U","NORAD_CAT_ID":56960,"ELEMENT_SET_NO":999,"REV_AT_EPOCH":15228,"BSTAR":0.00032835432,"MEAN_MOTION_DOT":0.00010378,"MEAN_MOTION_DDOT":0},{"OBJECT_NAME":"STARLINK-30612","OBJECT_ID":"2023-161K","EPOCH":"2026-03-09T12:00:19.636128","MEAN_MOTION":15.30186035,"ECCENTRICITY":9.479e-5,"INCLINATION":53.1594,"RA_OF_ASC_NODE":153.3961,"ARG_OF_PERICENTER":86.5768,"MEAN_ANOMALY":273.5341,"EPHEMERIS_TYPE":0,"CLASSIFICATION_TYPE":"U","NORAD_CAT_ID":58106,"ELEMENT_SET_NO":999,"REV_AT_EPOCH":13457,"BSTAR":1.3796287e-5,"MEAN_MOTION_DOT":5.0e-7,"MEAN_MOTION_DDOT":0}]
